NORAD_CAT_ID,OBJECT_NAME,OBJECT_TYPE,EPOCH,MEAN_MOTION,ECCENTRICITY,INCLINATION,RA_OF_ASC_NODE,ARG_OF_PERICENTER,MEAN_ANOMALY,BSTAR,MEAN_MOTION_DOT,MEAN_MOTION_DDOT,TLE_LINE0,TLE_LINE1,TLE_LINE2,SEMIMAJOR_AXIS,PERIOD,APOGEE,PERIGEE,DECAYED
51794.0,STARLINK-3573,PAYLOAD,2023-01-17 11:33:42,15.08818778,0.0001476999999999,53.2146,99.1402,88.2026,271.9136,-0.00015163,-2.699e-05,0.0,0 STARLINK-3573,1 51794U 22017AC  23017.48174055 -.00002699  00000-0 -15163-3 0  9992,2 51794  53.2146  99.1402 0001477  88.2026 271.9136 15.08818778 50736,6917.945,95.439,540.832,538.788,0.0
51794.0,STARLINK-3573,PAYLOAD,2023-01-18 11:24:28,15.0885997,0.0001361999999999,53.2159,94.681,97.7686,262.3461,0.0012492,0.0001966,0.0,0 STARLINK-3573,1 51794U 22017AC  23018.47533539  .00019660  00000-0  12492-2 0  9993,2 51794  53.2159  94.6810 0001362  97.7686 262.3461 15.08859970 50883,6917.819,95.436,540.627,538.742,0.0
51794.0,STARLINK-3573,PAYLOAD,2023-01-19 01:42:56,15.08840999,0.0001302,53.2142,92.0029,82.435,277.67900000000003,-0.0004502,-7.446e-05,0.0,0 STARLINK-3573,1 51794U 22017AC  23019.07149257 -.00007446  00000-0 -45020-3 0  9995,2 51794  53.2142  92.0029 0001302  82.4350 277.6790 15.08840999 50977,6917.877,95.437,540.643,538.842,0.0
51794.0,STARLINK-3573,PAYLOAD,2023-01-19 11:15:15,15.08854075,0.0001024,53.2156,90.2177,90.4834,269.6275,0.0020462,0.0003243999999999,0.0,0 STARLINK-3573,1 51794U 22017AC  23019.46892995  .00032440  00000-0  20462-2 0  9994,2 51794  53.2156  90.2177 0001024  90.4834 269.6275 15.08854075 51030,6917.837,95.437,540.411,538.994,0.0
51794.0,STARLINK-3573,PAYLOAD,2023-01-19 23:58:20,15.08861105,0.000101,53.2163,87.8389,91.4368,268.67400000000004,0.0017954999999999,0.00028419,0.0,0 STARLINK-3573,1 51794U 22017AC  23019.99885024  .00028419  00000-0  17955-2 0  9991,2 51794  53.2163  87.8389 0001010  91.4368 268.6740 15.08861105 51110,6917.816,95.436,540.38,538.982,0.0
51794.0,STARLINK-3573,PAYLOAD,2023-01-20 11:06:02,15.08850396,0.0001144,53.2162,85.7579,66.0307,294.0804,0.0020059,0.00031789,0.0,0 STARLINK-3573,1 51794U 22017AC  23020.46253286  .00031789  00000-0  20059-2 0  9997,2 51794  53.2162  85.7579 0001144  66.0307 294.0804 15.08850396 51187,6917.849,95.437,540.505,538.922,0.0
51794.0,STARLINK-3573,PAYLOAD,2023-01-20 20:38:21,15.08855932,0.0001309,53.2167,83.973,66.0725,294.0404,0.0018039999999999,0.00028552,0.0,0 STARLINK-3573,1 51794U 22017AC  23020.85997361  .00028552  00000-0  18040-2 0  9990,2 51794  53.2167  83.9730 0001309  66.0725 294.0404 15.08855932 51242,6917.831999999999,95.437,540.602,538.7909999999999,0.0
51794.0,STARLINK-3573,PAYLOAD,2023-01-21 10:56:49,15.08870116,0.0001113,53.2159,81.2973,75.3854,284.7261,0.0024224,0.00038507,0.0,0 STARLINK-3573,1 51794U 22017AC  23021.45612966  .00038507  00000-0  24224-2 0  9994,2 51794  53.2159  81.2973 0001113  75.3854 284.7261 15.08870116 51330,6917.7880000000005,95.436,540.423,538.883,0.0
51794.0,STARLINK-3573,PAYLOAD,2023-01-22 10:47:36,15.08862356,9.41e-05,53.2152,76.8359,87.1674,272.9425,0.0022297,0.00035398,0.0,0 STARLINK-3573,1 51794U 22017AC  23022.44972850  .00035398  00000-0  22297-2 0  9998,2 51794  53.2152  76.8359 0000941  87.1674 272.9425 15.08862356 51484,6917.812,95.436,540.328,539.026,0.0
51794.0,STARLINK-3573,PAYLOAD,2023-01-22 13:58:22,15.08864913,0.0001065999999999,53.2158,76.2416,90.2032,269.9082,0.0014180999999999,0.00022368,0.0,0 STARLINK-3573,1 51794U 22017AC  23022.58220685  .00022368  00000-0  14181-2 0  9991,2 51794  53.2158  76.2416 0001066  90.2032 269.9082 15.08864913 51509,6917.804,95.436,540.4069999999999,538.932,0.0
51794.0,STARLINK-3573,PAYLOAD,2023-01-22 20:19:55,15.08838134,0.0001521999999999,53.215,75.0501,79.1277,280.9886,0.0011174,0.00017539,0.0,0 STARLINK-3573,1 51794U 22017AC  23022.84717021  .00017539  00000-0  11174-2 0  9998,2 51794  53.2150  75.0501 0001522  79.1277 280.9886 15.08838134 51542,6917.886,95.438,540.804,538.698,0.0
51794.0,STARLINK-3573,PAYLOAD,2023-01-23 12:13:47,15.08825132,0.0003027,53.214,72.0779,77.944,282.1891,0.00027309,4.059e-05,0.0,0 STARLINK-3573,1 51794U 22017AC  23023.50958260  .00004059  00000-0  27309-3 0  9995,2 51794  53.2140  72.0779 0003027  77.9440 282.1891 15.08825132 51640,6917.926,95.438,541.885,537.697,0.0
51794.0,STARLINK-3573,PAYLOAD,2023-01-24 04:07:38,15.08846306,0.0001047,53.215,69.1033,103.2189,256.892,0.00013297,1.829e-05,0.0,0 STARLINK-3573,1 51794U 22017AC  23024.17196913  .00001829  00000-0  13297-3 0  9991,2 51794  53.2150  69.1033 0001047 103.2189 256.8920 15.08846306 51742,6917.861,95.437,540.45,539.002,0.0
51794.0,STARLINK-3573,PAYLOAD,2023-01-24 10:29:11,15.08842819,0.0001733,53.2163,67.9143,60.9497,299.1669,6.9589e-05,8.2e-06,0.0,0 STARLINK-3573,1 51794U 22017AC  23024.43693772  .00000820  00000-0  69589-4 0  9991,2 51794  53.2163  67.9143 0001733  60.9497 299.1669 15.08842819 51786,6917.871999999999,95.437,540.936,538.538,0.0
51794.0,STARLINK-3573,PAYLOAD,2023-01-25 08:44:35,15.08844026,0.0001307,53.2154,63.7522,86.9392,273.1749,0.00027812,4.142e-05,0.0,0 STARLINK-3573,1 51794U 22017AC  23025.36429764  .00004142  00000-0  27812-3 0  9995,2 51794  53.2154  63.7522 0001307  86.9392 273.1749 15.08844026 51929,6917.868,95.437,540.637,538.8290000000001,0.0
51794.0,STARLINK-3573,PAYLOAD,2023-01-25 19:52:17,15.08847225,0.0001250999999999,53.2161,61.6712,89.3937,270.7199,0.00026185,3.883e-05,0.0,0 STARLINK-3573,1 51794U 22017AC  23025.82797483  .00003883  00000-0  26185-3 0  9995,2 51794  53.2161  61.6712 0001251  89.3937 270.7199 15.08847225 51998,6917.858,95.437,540.589,538.8580000000001,0.0
51794.0,STARLINK-3573,PAYLOAD,2023-01-26 08:35:22,15.08843385,0.0001544,53.216,59.2916,93.3976,266.7193,4.5998e-05,4.44e-06,0.0,0 STARLINK-3573,1 51794U 22017AC  23026.35789693  .00000444  00000-0  45998-4 0  9992,2 51794  53.2160  59.2916 0001544  93.3976 266.7193 15.08843385 52071,6917.87,95.437,540.803,538.6669999999999,0.0
51794.0,STARLINK-3573,PAYLOAD,2023-01-27 02:04:37,15.08834958,0.0001482,53.2156,56.0198,93.6609,266.4552,-6.8357e-05,-1.376e-05,0.0,0 STARLINK-3573,1 51794U 22017AC  23027.08654127 -.00001376  00000-0 -68357-4 0  9997,2 51794  53.2156  56.0198 0001482  93.6609 266.4552 15.08834958 52184,6917.896,95.438,540.786,538.736,0.0
51794.0,STARLINK-3573,PAYLOAD,2023-01-27 11:36:55,15.08843427,0.0001456,53.2162,54.2345,97.6793,262.4365,1.3502e-05,-7.3e-07,0.0,0 STARLINK-3573,1 51794U 22017AC  23027.48397701 -.00000073  00000-0  13502-4 0  9997,2 51794  53.2162  54.2345 0001456  97.6793 262.4365 15.08843427 52240,6917.87,95.437,540.742,538.7280000000001,0.0
51794.0,STARLINK-3573,PAYLOAD,2023-01-28 01:55:24,15.08833043,0.0001415,53.2164,51.5567,106.8337,253.281,5.1066e-05,5.25e-06,0.0,0 STARLINK-3573,1 51794U 22017AC  23028.08014344  .00000525  00000-0  51066-4 0  9991,2 51794  53.2164  51.5567 0001415 106.8337 253.2810 15.08833043 52336,6917.901999999999,95.438,540.746,538.788,0.0
51794.0,STARLINK-3573,PAYLOAD,2023-01-28 11:27:42,15.08843277,0.0001427,53.2159,49.7753,89.9614,270.1542,0.00010851,1.44e-05,0.0,0 STARLINK-3573,1 51794U 22017AC  23028.47757703  .00001440  00000-0  10851-3 0  9990,2 51794  53.2159  49.7753 0001427  89.9614 270.1542 15.08843277 52394,6917.87,95.437,540.723,538.748,0.0
51794.0,STARLINK-3573,PAYLOAD,2023-01-28 17:49:15,15.08841876,0.0001561,53.2157,48.5837,78.7061,281.4107,2.7981e-05,1.57e-06,0.0,0 STARLINK-3573,1 51794U 22017AC  23028.74254010  .00000157  00000-0  27981-4 0  9990,2 51794  53.2157  48.5837 0001561  78.7061 281.4107 15.08841876 52433,6917.875,95.437,540.82,538.66,0.0
51794.0,STARLINK-3573,PAYLOAD,2023-01-29 00:10:48,15.08832681,0.0001472,53.2163,47.3942,100.8675,259.2483,9.9172e-05,1.29e-05,0.0,0 STARLINK-3573,1 51794U 22017AC  23029.00750427  .00001290  00000-0  99172-4 0  9993,2 51794  53.2163  47.3942 0001472 100.8675 259.2483 15.08832681 52471,6917.903,95.438,540.786,538.749,0.0
51794.0,STARLINK-3573,PAYLOAD,2023-01-29 08:07:43,15.08839304,0.0001537,53.2161,45.9078,101.0186,259.0979,0.00014508,2.022e-05,0.0,0 STARLINK-3573,1 51794U 22017AC  23029.33869946  .00002022  00000-0  14508-3 0  9999,2 51794  53.2161  45.9078 0001537 101.0186 259.0979 15.08839304 52528,6917.883,95.438,540.811,538.684,0.0
51794.0,STARLINK-3573,PAYLOAD,2023-01-30 01:36:58,15.08834239,0.0001484,53.216,42.6371,99.2956,260.8204,2.8623e-05,1.68e-06,0.0,0 STARLINK-3573,1 51794U 22017AC  23030.06734739  .00000168  00000-0  28623-4 0  9995,2 51794  53.2160  42.6371 0001484  99.2956 260.8204 15.08834239 52636,6917.898,95.438,540.79,538.736,0.0
51794.0,STARLINK-3573,PAYLOAD,2023-01-30 09:33:54,15.08834955,0.0001414,53.2164,41.151,91.3665,268.7489,2.8813e-05,1.71e-06,0.0,0 STARLINK-3573,1 51794U 22017AC  23030.39854847  .00000171  00000-0  28813-4 0  9999,2 51794  53.2164  41.1510 0001414  91.3665 268.7489 15.08834955 52684,6917.896,95.438,540.739,538.783,0.0
51794.0,STARLINK-3573,PAYLOAD,2023-01-31 09:24:41,15.08843991,0.0001441,53.2171,36.689,91.6018,268.5139,8.5203e-05,1.068e-05,0.0,0 STARLINK-3573,1 51794U 22017AC  23031.39214222  .00001068  00000-0  85203-4 0  9999,2 51794  53.2171  36.6890 0001441  91.6018 268.5139 15.08843991 52834,6917.868,95.437,540.73,538.736,0.0
51794.0,STARLINK-3573,PAYLOAD,2023-02-01 09:15:27,15.0884724,0.0001459,53.2169,32.2288,85.6733,274.4426,0.0001538,2.161e-05,0.0,0 STARLINK-3573,1 51794U 22017AC  23032.38573867  .00002161  00000-0  15380-3 0  9995,2 51794  53.2169  32.2288 0001459  85.6733 274.4426 15.08847240 52982,6917.858,95.437,540.733,538.714,0.0
51794.0,STARLINK-3573,PAYLOAD,2023-02-02 05:55:29,15.08843897,0.0001547,53.2171,28.3627,95.558,264.5589,2.7509e-05,1.5e-06,0.0,0 STARLINK-3573,1 51794U 22017AC  23033.24686413  .00000150  00000-0  27509-4 0  9996,2 51794  53.2171  28.3627 0001547  95.5580 264.5589 15.08843897 53116,6917.868,95.437,540.804,538.663,0.0
